[{"OBJECT_NAME":"MAKERSAT 0","OBJECT_ID":"2017-073D","EPOCH":"2026-03-09T15:16:53.554944","MEAN_MOTION":15.27797199,"ECCENTRICITY":0.0115258,"INCLINATION":97.4777,"RA_OF_ASC_NODE":310.6155,"ARG_OF_PERICENTER":266.0743,"MEAN_ANOMALY":92.7313,"EPHEMERIS_TYPE":0,"CLASSIFICATION_TYPE":"U","NORAD_CAT_ID":43016,"ELEMENT_SET_NO":999,"REV_AT_EPOCH":45124,"BSTAR":0.0007159,"MEAN_MOTION_DOT":0.00023659,"MEAN_MOTION_DDOT":0},{"OBJECT_NAME":"CZ-4 DEB","OBJECT_ID":"1990-081Z","EPOCH":"2026-03-09T18:07:39.944352","MEAN_MOTION":15.17725505,"ECCENTRICITY":0.00034514,"INCLINATION":98.0344,"RA_OF_ASC_NODE":132.584,"ARG_OF_PERICENTER":292.5158,"MEAN_ANOMALY":67.5708,"EPHEMERIS_TYPE":0,"CLASSIFICATION_TYPE":"U","NORAD_CAT_ID":20861,"ELEMENT_SET_NO":999,"REV_AT_EPOCH":85925,"BSTAR":0.0035527985,"MEAN_MOTION_DOT":0.00072268,"MEAN_MOTION_DDOT":0}]
